sat13553
1 13553U 82092B   20046.94398707  .00000076  00000-0  61050-5 0  9997
2 13553  82.5671  46.7667 0022896  68.4245 316.5043 14.84222639   395
